#aV2007  7 16  0  0   .00000000      96 DD+AD WGS84 FIT  NGA
## 1436  86400.00000000   900.00000000 54297  .0000000000000
+   31     1  2  3  4  5  6  7  8  9 10 11 12 13 14 16 17 18
+         19 20 21 22 23 24 25 26 27 28 29 30 31 32  0  0  0
+          0  0  0  0  0  0  0  0  0  0  0  0  0  0  0  0  0
+          0  0  0  0  0  0  0  0  0  0  0  0  0  0  0  0  0
+          0  0  0  0  0  0  0  0  0  0  0  0  0  0  0  0  0
++         0  0  0  0  0  0  0  0  0  0  0  0  0  0  0  0  0
++         0  0  0  0  0  0  0  0  0  0  0  0  0  0  0  0  0
++         0  0  0  0  0  0  0  0  0  0  0  0  0  0  0  0  0
++         0  0  0  0  0  0  0  0  0  0  0  0  0  0  0  0  0
++         0  0  0  0  0  0  0  0  0  0  0  0  0  0  0  0  0
%c cc cc ccc ccc cccc cccc cccc cccc ccccc ccccc ccccc ccccc
%c cc cc ccc ccc cccc cccc cccc cccc ccccc ccccc ccccc ccccc
%f  0.0000000  0.000000000  0.00000000000  0.000000000000000
%f  0.0000000  0.000000000  0.00000000000  0.000000000000000
%i    0    0    0    0      0      0      0      0         0
%i    0    0    0    0      0      0      0      0         0
/*      NGA, ST. LOUIS,MO.                                  
/*   EPHEMERIS COMPUTED FROM  3 DAYS OF DATA                
/* CCCCCCCCCCCCCCCCCCCCCCCCCCCCCCCCCCCCCCCCCCCCCCCCCCCCCCCCC
/* CCCCCCCCCCCCCCCCCCCCCCCCCCCCCCCCCCCCCCCCCCCCCCCCCCCCCCCCC
*  2007  7 16 22 15   .00000000                                                 
P  1  14180.795027 -14376.897462 -17004.033290    140.310000                    
V  1  -2944.278724  21803.359206 -20706.158357       .021887                    
P  2 -22276.984133  13096.956399   5204.977822    122.063631                    
V  2  -7733.229283   -617.949714 -30666.630575       .027992                    
P  3  10742.883121 -20139.724825  13080.808836     87.568099                    
V  3   2622.273528  17310.300586  24447.574343       .055157                    
P  4 -25585.920097   5434.406623  -5664.988788      6.367643                    
V  4   5550.274049  -5227.794724 -30083.141761      -.015829                    
P  5  11398.655890  19714.610590 -14040.981056    186.461977                    
V  5 -15904.033468  -7494.532013 -23698.001213       .446626                    
P  6   8591.462096  20657.962712  14478.132618    235.769601                    
V  6  -4594.989068  17761.948689 -22956.709734       .057157                    
P  7  10769.031863  18095.762142  16502.789236    201.141206                    
V  7  -3905.508793  20164.329737 -20039.258659      -.204699                    
P  8 -22728.013410  -2005.077785  13852.115302   -115.184906                    
V  8  16130.753515  -7128.905442  24792.071676      -.014859                    
P  9  -5045.112679  17345.649698 -20008.263696     78.975858                    
V  9 -22521.164635   8776.976268  13916.451435       .016291                    
P 10 -12428.998400   8979.888892  21600.055164    104.867742                    
V 10 -21139.345391 -17816.249333  -4422.712462       .005724                    
P 11   1495.140683 -18699.844537 -18816.583312     20.595427                    
V 11  21634.252919 -10729.136922  12754.491861       .006829                    
P 12   5490.866194  19486.649982 -17121.951257    -49.662318                    
V 12 -18280.810033 -12203.629740 -19568.722777      -.011582                    
P 13  -6718.654110 -20226.809330  15760.214876    190.478480                    
V 13   4837.783278 -19582.517162 -22883.015766       .031312                    
P 14  14571.568000   1075.274272 -22093.560735     30.321384                    
V 14  -4495.872383  27819.651443  -1689.455226       .019849                    
P 16  16894.965951  -4303.793757  20163.246721    163.086046                    
V 16  19090.680757  16732.914442 -12318.523556       .025812                    
P 17 -14833.849423  -3681.865990 -21707.045115     60.961099                    
V 17   4235.529658 -27282.384768   1600.907027      -.013926                    
P 18  19988.947120  17770.605473    726.644143   -244.108093                    
V 18  -2363.597299   1624.842068  31330.704665       .012953                    
P 19   7609.450811 -25191.603234   3154.769306     51.217048                    
V 19   2132.503527   4437.667341  31419.000253       .029104                    
P 20  -7946.915447 -20077.563388 -15593.974617    -26.868613                    
V 20  16846.018925  10272.840321 -21928.821862      -.004889                    
P 21  16399.406062   8994.532906  19197.207435     78.645566                    
V 21 -22110.207177   9381.797160  14007.318913       .001470                    
P 22  22394.632559   9190.879393 -10822.113097    190.922135                    
V 22   8765.295327  11226.313932  27242.491748       .013502                    
P 23  -1041.633151 -25495.326238   6869.028360    182.471688                    
V 23   3824.766769  -8412.928491 -30488.358142       .032790                    
P 24   2909.414596  15261.361943  21760.776535     15.653173                    
V 24 -25734.542806   8657.905376  -2372.165487       .028911                    
P 25  -8887.677045 -12692.395709  21929.789314    369.205125                    
V 25  23883.940931 -12576.563585   2591.999676       .170117                    
P 26  -8514.349431  23923.018506   6262.516915   -310.857477                    
V 26   -677.500298  -8911.443158  31470.719939      -.221210                    
P 27 -16088.805541  -7962.702573  20294.984657    123.051404                    
V 27  21595.359454 -11130.843930  12957.048137       .023049                    
P 28 -22587.292631 -12144.355673  -7227.863396     -3.107581                    
V 28  -5823.443948  -7934.473327  29775.228396      -.007769                    
P 29 -10647.608378  21410.809938  11335.781918      4.517751                    
V 29    179.193334 -14304.484914  28045.579758       .001729                    
P 30  15891.430982  19534.403272  -8938.799334     39.730751                    
V 30 -10467.784446  -4146.447077 -28577.569039       .010324                    
P 31  25206.150192  -7809.267379  -3168.146732     15.519019                    
V 31  -2941.711622   4068.233981 -31422.765897      -.009319                    
P 32  17616.404703  -1533.744259 -19307.406834    513.459033                    
V 32  17838.065884  18324.429597  14597.997823       .203696                    
EOF
